CCSDS_OMM_VERS = 2.0
CREATION_DATE  = 
ORIGINATOR     = 

OBJECT_NAME    = STARLINK-36344
OBJECT_ID      = 2026-025T
CENTER_NAME    = EARTH
REF_FRAME      = TEME
TIME_SYSTEM    = UTC
MEAN_ELEMENT_THEORY = SGP/SGP4

EPOCH          = 2026-02-25T14:00:03.000384
MEAN_MOTION    = 15.80790218
ECCENTRICITY   = .00014649
INCLINATION    = 97.2842
RA_OF_ASC_NODE = 167.5978
ARG_OF_PERICENTER = 87.7485
MEAN_ANOMALY   = 30.3656

EPHEMERIS_TYPE = 0
CLASSIFICATION_TYPE = U
NORAD_CAT_ID   = 67710
ELEMENT_SET_NO = 999
REV_AT_EPOCH   = 406
BSTAR          = .30207475E-3
MEAN_MOTION_DOT = .58038E-3
MEAN_MOTION_DDOT = 0

CCSDS_OMM_VERS = 2.0
CREATION_DATE  = 
ORIGINATOR     = 

OBJECT_NAME    = STARLINK-36687
OBJECT_ID      = 2026-025U
CENTER_NAME    = EARTH
REF_FRAME      = TEME
TIME_SYSTEM    = UTC
MEAN_ELEMENT_THEORY = SGP/SGP4

EPOCH          = 2026-02-25T14:00:03.000384
MEAN_MOTION    = 15.80788126
ECCENTRICITY   = .00019106
INCLINATION    = 97.2839
RA_OF_ASC_NODE = 167.6023
ARG_OF_PERICENTER = 126.0805
MEAN_ANOMALY   = 3.3940

EPHEMERIS_TYPE = 0
CLASSIFICATION_TYPE = U
NORAD_CAT_ID   = 67711
ELEMENT_SET_NO = 999
REV_AT_EPOCH   = 406
BSTAR          = .38869446E-4
MEAN_MOTION_DOT = .73E-4
MEAN_MOTION_DDOT = 0

CCSDS_OMM_VERS = 2.0
CREATION_DATE  = 
ORIGINATOR     = 

OBJECT_NAME    = STARLINK-36705
OBJECT_ID      = 2026-025V
CENTER_NAME    = EARTH
REF_FRAME      = TEME
TIME_SYSTEM    = UTC
MEAN_ELEMENT_THEORY = SGP/SGP4

EPOCH          = 2026-02-25T14:00:03.000384
MEAN_MOTION    = 15.78523719
ECCENTRICITY   = .00020444
INCLINATION    = 97.2779
RA_OF_ASC_NODE = 167.6108
ARG_OF_PERICENTER = 83.8244
MEAN_ANOMALY   = 70.3900

EPHEMERIS_TYPE = 0
CLASSIFICATION_TYPE = U
NORAD_CAT_ID   = 67712
ELEMENT_SET_NO = 999
REV_AT_EPOCH   = 396
BSTAR          = -.12580402E-1
MEAN_MOTION_DOT = -.1897551E-1
MEAN_MOTION_DDOT = 0

CCSDS_OMM_VERS = 2.0
CREATION_DATE  = 
ORIGINATOR     = 

OBJECT_NAME    = STARLINK-36708
OBJECT_ID      = 2026-025W
CENTER_NAME    = EARTH
REF_FRAME      = TEME
TIME_SYSTEM    = UTC
MEAN_ELEMENT_THEORY = SGP/SGP4

EPOCH          = 2026-02-25T14:00:03.000384
MEAN_MOTION    = 15.80847592
ECCENTRICITY   = .00014075
INCLINATION    = 97.2808
RA_OF_ASC_NODE = 167.6273
ARG_OF_PERICENTER = 109.5140
MEAN_ANOMALY   = 80.7781

EPHEMERIS_TYPE = 0
CLASSIFICATION_TYPE = U
NORAD_CAT_ID   = 67713
ELEMENT_SET_NO = 999
REV_AT_EPOCH   = 396
BSTAR          = .12663197E-3
MEAN_MOTION_DOT = .24217E-3
MEAN_MOTION_DDOT = 0

CCSDS_OMM_VERS = 2.0
CREATION_DATE  = 
ORIGINATOR     = 

OBJECT_NAME    = STARLINK-36702
OBJECT_ID      = 2026-025X
CENTER_NAME    = EARTH
REF_FRAME      = TEME
TIME_SYSTEM    = UTC
MEAN_ELEMENT_THEORY = SGP/SGP4

EPOCH          = 2026-02-25T14:00:03.000384
MEAN_MOTION    = 15.80718200
ECCENTRICITY   = .0001673
INCLINATION    = 97.2817
RA_OF_ASC_NODE = 167.6223
ARG_OF_PERICENTER = 120.9574
MEAN_ANOMALY   = 58.8880

EPHEMERIS_TYPE = 0
CLASSIFICATION_TYPE = U
NORAD_CAT_ID   = 67714
ELEMENT_SET_NO = 999
REV_AT_EPOCH   = 369
BSTAR          = .8968938E-3
MEAN_MOTION_DOT = .174354E-2
MEAN_MOTION_DDOT = 0

CCSDS_OMM_VERS = 2.0
CREATION_DATE  = 
ORIGINATOR     = 

OBJECT_NAME    = STARLINK-36718
OBJECT_ID      = 2026-025Y
CENTER_NAME    = EARTH
REF_FRAME      = TEME
TIME_SYSTEM    = UTC
MEAN_ELEMENT_THEORY = SGP/SGP4

EPOCH          = 2026-02-25T14:00:03.000384
MEAN_MOTION    = 15.80738763
ECCENTRICITY   = .00016241
INCLINATION    = 97.2784
RA_OF_ASC_NODE = 167.6374
ARG_OF_PERICENTER = 71.4475
MEAN_ANOMALY   = 143.4693

EPHEMERIS_TYPE = 0
CLASSIFICATION_TYPE = U
NORAD_CAT_ID   = 67715
ELEMENT_SET_NO = 999
REV_AT_EPOCH   = 390
BSTAR          = .61801061E-3
MEAN_MOTION_DOT = .11945E-2
MEAN_MOTION_DDOT = 0

CCSDS_OMM_VERS = 2.0
CREATION_DATE  = 
ORIGINATOR     = 

OBJECT_NAME    = STARLINK-36715
OBJECT_ID      = 2026-025Z
CENTER_NAME    = EARTH
REF_FRAME      = TEME
TIME_SYSTEM    = UTC
MEAN_ELEMENT_THEORY = SGP/SGP4

EPOCH          = 2026-02-25T14:00:03.000384
MEAN_MOTION    = 15.80753435
ECCENTRICITY   = .00015114
INCLINATION    = 97.2819
RA_OF_ASC_NODE = 167.6332
ARG_OF_PERICENTER = 78.1931
MEAN_ANOMALY   = 124.9922

EPHEMERIS_TYPE = 0
CLASSIFICATION_TYPE = U
NORAD_CAT_ID   = 67716
ELEMENT_SET_NO = 999
REV_AT_EPOCH   = 396
BSTAR          = .69446735E-3
MEAN_MOTION_DOT = .134568E-2
MEAN_MOTION_DDOT = 0

CCSDS_OMM_VERS = 2.0
CREATION_DATE  = 
ORIGINATOR     = 

OBJECT_NAME    = STARLINK-36385
OBJECT_ID      = 2026-025AA
CENTER_NAME    = EARTH
REF_FRAME      = TEME
TIME_SYSTEM    = UTC
MEAN_ELEMENT_THEORY = SGP/SGP4

EPOCH          = 2026-02-25T14:00:03.000384
MEAN_MOTION    = 15.80750810
ECCENTRICITY   = .00005723
INCLINATION    = 97.2816
RA_OF_ASC_NODE = 167.6175
ARG_OF_PERICENTER = 98.8053
MEAN_ANOMALY   = 68.8157

EPHEMERIS_TYPE = 0
CLASSIFICATION_TYPE = U
NORAD_CAT_ID   = 67717
ELEMENT_SET_NO = 999
REV_AT_EPOCH   = 396
BSTAR          = .40769536E-3
MEAN_MOTION_DOT = .7842E-3
MEAN_MOTION_DDOT = 0

CCSDS_OMM_VERS = 2.0
CREATION_DATE  = 
ORIGINATOR     = 

OBJECT_NAME    = CZ-2F DEB
OBJECT_ID      = 2026-024E
CENTER_NAME    = EARTH
REF_FRAME      = TEME
TIME_SYSTEM    = UTC
MEAN_ELEMENT_THEORY = SGP/SGP4

EPOCH          = 2026-02-25T12:51:29.357280
MEAN_MOTION    = 15.20082823
ECCENTRICITY   = .02492473
INCLINATION    = 50.3164
RA_OF_ASC_NODE = 78.2036
ARG_OF_PERICENTER = 232.2339
MEAN_ANOMALY   = 125.5806

EPHEMERIS_TYPE = 0
CLASSIFICATION_TYPE = U
NORAD_CAT_ID   = 67718
ELEMENT_SET_NO = 999
REV_AT_EPOCH   = 278
BSTAR          = .34234218E-2
MEAN_MOTION_DOT = .179977E-2
MEAN_MOTION_DDOT = 0

CCSDS_OMM_VERS = 2.0
CREATION_DATE  = 
ORIGINATOR     = 

OBJECT_NAME    = CZ-2F DEB
OBJECT_ID      = 2026-024F
CENTER_NAME    = EARTH
REF_FRAME      = TEME
TIME_SYSTEM    = UTC
MEAN_ELEMENT_THEORY = SGP/SGP4

EPOCH          = 2026-02-25T13:42:25.973280
MEAN_MOTION    = 14.99817082
ECCENTRICITY   = .03245239
INCLINATION    = 49.7912
RA_OF_ASC_NODE = 80.0880
ARG_OF_PERICENTER = 222.9049
MEAN_ANOMALY   = 134.6159

EPHEMERIS_TYPE = 0
CLASSIFICATION_TYPE = U
NORAD_CAT_ID   = 67719
ELEMENT_SET_NO = 999
REV_AT_EPOCH   = 242
BSTAR          = .32099862E-2
MEAN_MOTION_DOT = .128777E-2
MEAN_MOTION_DDOT = 0

CCSDS_OMM_VERS = 2.0
CREATION_DATE  = 
ORIGINATOR     = 

OBJECT_NAME    = CZ-2F DEB
OBJECT_ID      = 2026-024G
CENTER_NAME    = EARTH
REF_FRAME      = TEME
TIME_SYSTEM    = UTC
MEAN_ELEMENT_THEORY = SGP/SGP4

EPOCH          = 2026-02-25T12:53:32.128224
MEAN_MOTION    = 14.97156623
ECCENTRICITY   = .03351566
INCLINATION    = 49.8310
RA_OF_ASC_NODE = 80.6348
ARG_OF_PERICENTER = 219.1235
MEAN_ANOMALY   = 138.5037

EPHEMERIS_TYPE = 0
CLASSIFICATION_TYPE = U
NORAD_CAT_ID   = 67720
ELEMENT_SET_NO = 999
REV_AT_EPOCH   = 273
BSTAR          = .33029558E-2
MEAN_MOTION_DOT = .129015E-2
MEAN_MOTION_DDOT = 0

CCSDS_OMM_VERS = 2.0
CREATION_DATE  = 
ORIGINATOR     = 

OBJECT_NAME    = STARLINK-36772
OBJECT_ID      = 2026-026A
CENTER_NAME    = EARTH
REF_FRAME      = TEME
TIME_SYSTEM    = UTC
MEAN_ELEMENT_THEORY = SGP/SGP4

EPOCH          = 2026-02-11T18:04:34.000320
MEAN_MOTION    = 16.07750770
ECCENTRICITY   = .00034
INCLINATION    = 97.2800
RA_OF_ASC_NODE = 95.5280
ARG_OF_PERICENTER = 259.0800
MEAN_ANOMALY   = 81.2200

EPHEMERIS_TYPE = 0
CLASSIFICATION_TYPE = U
NORAD_CAT_ID   = 67721
ELEMENT_SET_NO = 999
REV_AT_EPOCH   = 1
BSTAR          = 0
MEAN_MOTION_DOT = -.725E-5
MEAN_MOTION_DDOT = .2293429E-5

