STARLINK-36344          
1 67710U 26025T   26056.58336806  .00058038  00000+0  30207-3 0  9992
2 67710  97.2842 167.5978 0001464  87.7485  30.3656 15.80790218  4066
STARLINK-36687          
1 67711U 26025U   26056.58336806  .00007300  00000+0  38869-4 0  9992
2 67711  97.2839 167.6023 0001910 126.0805   3.3940 15.80788126  4065
STARLINK-36705          
1 67712U 26025V   26056.58336806 -.01897551  00000+0 -12580-1 0  9990
2 67712  97.2779 167.6108 0002044  83.8244  70.3900 15.78523719  3969
STARLINK-36708          
1 67713U 26025W   26056.58336806  .00024217  00000+0  12663-3 0  9993
2 67713  97.2808 167.6273 0001407 109.5140  80.7781 15.80847592  3962
STARLINK-36702          
1 67714U 26025X   26056.58336806  .00174354  00000+0  89689-3 0  9994
2 67714  97.2817 167.6223 0001673 120.9574  58.8880 15.80718200  3690
STARLINK-36718          
1 67715U 26025Y   26056.58336806  .00119450  00000+0  61801-3 0  9997
2 67715  97.2784 167.6374 0001624  71.4475 143.4693 15.80738763  3900
STARLINK-36715          
1 67716U 26025Z   26056.58336806  .00134568  00000+0  69447-3 0  9999
2 67716  97.2819 167.6332 0001511  78.1931 124.9922 15.80753435  3968
STARLINK-36385          
1 67717U 26025AA  26056.58336806  .00078420  00000+0  40770-3 0  9992
2 67717  97.2816 167.6175 0000572  98.8053  68.8157 15.80750810  3961
CZ-2F DEB               
1 67718U 26024E   26056.53575645  .00179977  00000+0  34234-2 0  9999
2 67718  50.3164  78.2036 0249247 232.2339 125.5806 15.20082823  2783
CZ-2F DEB               
1 67719U 26024F   26056.57113395  .00128777  00000+0  32100-2 0  9996
2 67719  49.7912  80.0880 0324523 222.9049 134.6159 14.99817082  2421
CZ-2F DEB               
1 67720U 26024G   26056.53717741  .00129015  00000+0  33030-2 0  9998
2 67720  49.8310  80.6348 0335156 219.1235 138.5037 14.97156623  2737
STARLINK-36772          
1 67721U 26026A   26042.75317130 -.00000725  22934-5  00000+0 0  9999
2 67721  97.2800  95.5280 0003400 259.0800  81.2200 16.07750770    15
